NORAD_CAT_ID,OBJECT_NAME,OBJECT_TYPE,EPOCH,MEAN_MOTION,ECCENTRICITY,INCLINATION,RA_OF_ASC_NODE,ARG_OF_PERICENTER,MEAN_ANOMALY,BSTAR,MEAN_MOTION_DOT,MEAN_MOTION_DDOT,TLE_LINE0,TLE_LINE1,TLE_LINE2,SEMIMAJOR_AXIS,PERIOD,APOGEE,PERIGEE,DECAYED
52546.0,STARLINK-3948,PAYLOAD,2024-04-19 21:18:32,15.0884106,0.0001946,53.2183,341.039,91.3604,268.7611,0.00038684,5.874e-05,0.0,0 STARLINK-3948,1 52546U 22051P   24110.88787912  .00005874  00000-0  38684-3 0  9996,2 52546  53.2183 341.0390 0001946  91.3604 268.7611 15.08841060107539,6917.877,95.437,541.088,538.396,0.0
52546.0,STARLINK-3948,PAYLOAD,2024-04-19 22:53:55,15.08859162,0.0001536,53.2174,340.7413,87.7547,272.3621,0.00063023,9.762e-05,0.0,0 STARLINK-3948,1 52546U 22051P   24110.95411265  .00009762  00000-0  63023-3 0  9994,2 52546  53.2174 340.7413 0001536  87.7547 272.3621 15.08859162107478,6917.822,95.436,540.749,538.624,0.0
52546.0,STARLINK-3948,PAYLOAD,2024-04-20 00:29:18,15.08861439,0.0001561,53.2178,340.4445,90.9256,269.1915,0.00065621,0.00010177,0.0,0 STARLINK-3948,1 52546U 22051P   24111.02035172  .00010177  00000-0  65621-3 0  9990,2 52546  53.2178 340.4445 0001561  90.9256 269.1915 15.08861439107554,6917.815,95.436,540.76,538.6,0.0
52546.0,STARLINK-3948,PAYLOAD,2024-04-20 19:33:55,15.08848281,0.0001649,53.2186,336.8736,97.2537,262.8642,-6.4441e-06,-3.91e-06,0.0,0 STARLINK-3948,1 52546U 22051P   24111.81522798 -.00000391  00000-0 -64441-5 0  9992,2 52546  53.2186 336.8736 0001649  97.2537 262.8642 15.08848281107674,6917.855,95.437,540.861,538.579,0.0
52546.0,STARLINK-3948,PAYLOAD,2024-04-21 14:38:33,15.08844452,0.0001268,53.2183,333.3039,101.2707,258.8427,-0.00010847,-2.014e-05,0.0,0 STARLINK-3948,1 52546U 22051P   24112.61010815 -.00002014  00000-0 -10847-3 0  9996,2 52546  53.2183 333.3039 0001268 101.2707 258.8427 15.08844452107729,6917.867,95.437,540.609,538.855,0.0
52546.0,STARLINK-3948,PAYLOAD,2024-04-21 21:00:05,15.0884936,0.000155,53.2182,332.1195,90.2393,269.8777,4.6064e-05,4.45e-06,0.0,0 STARLINK-3948,1 52546U 22051P   24112.87506555  .00000445  00000-0  46064-4 0  9990,2 52546  53.2182 332.1195 0001550  90.2393 269.8777 15.08849360107835,6917.852,95.437,540.789,538.645,0.0
52546.0,STARLINK-3948,PAYLOAD,2024-04-22 00:10:51,15.0885624,0.0001633,53.219,331.522,102.8137,257.3038,0.00020568,2.988e-05,0.0,0 STARLINK-3948,1 52546U 22051P   24113.00754198  .00002988  00000-0  20568-3 0  9998,2 52546  53.2190 331.5220 0001633 102.8137 257.3038 15.08856240107853,6917.831,95.437,540.825,538.566,0.0
52546.0,STARLINK-3948,PAYLOAD,2024-04-22 20:50:53,15.08836343,0.0001286,53.219,327.6597,91.8293,268.2846,9.4278e-06,-1.38e-06,0.0,0 STARLINK-3948,1 52546U 22051P   24113.86867281 -.00000138  00000-0  94278-5 0  9997,2 52546  53.2190 327.6597 0001286  91.8293 268.2846 15.08836343107984,6917.892,95.438,540.646,538.867,0.0
52546.0,STARLINK-3948,PAYLOAD,2024-04-23 20:41:40,15.08845233,0.0001302,53.219,323.2013,97.5248,262.5892,0.0003655,5.535e-05,0.0,0 STARLINK-3948,1 52546U 22051P   24114.86227611  .00005535  00000-0  36550-3 0  9997,2 52546  53.2190 323.2013 0001302  97.5248 262.5892 15.08845233108067,6917.864,95.437,540.63,538.829,0.0
52546.0,STARLINK-3948,PAYLOAD,2024-04-23 23:52:26,15.08848562,0.0001169,53.2178,322.5979,77.4776,282.6347,0.00052152,8.024e-05,0.0,0 STARLINK-3948,1 52546U 22051P   24114.99475444  .00008024  00000-0  52152-3 0  9992,2 52546  53.2178 322.5979 0001169  77.4776 282.6347 15.08848562108156,6917.854,95.437,540.528,538.911,0.0
52546.0,STARLINK-3948,PAYLOAD,2024-04-24 20:32:27,15.08840673,0.0001332,53.2179,318.7359,116.199,243.9139,0.00023732,3.491e-05,0.0,0 STARLINK-3948,1 52546U 22051P   24115.85587913  .00003491  00000-0  23732-3 0  9998,2 52546  53.2179 318.7359 0001332 116.1990 243.9139 15.08840673108285,6917.878,95.438,540.665,538.822,0.0
52546.0,STARLINK-3948,PAYLOAD,2024-04-24 23:43:14,15.08842907,0.0001278,53.2171,318.1362,119.2866,240.8254,0.00051406,7.903e-05,0.0,0 STARLINK-3948,1 52546U 22051P   24115.98835862  .00007903  00000-0  51406-3 0  9992,2 52546  53.2171 318.1362 0001278 119.2866 240.8254 15.08842907108231,6917.872,95.437,540.621,538.852,0.0
52546.0,STARLINK-3948,PAYLOAD,2024-04-25 18:47:52,15.08838597,0.0001282,53.2175,314.5659,118.6185,241.4936,0.00014632,2.041e-05,0.0,0 STARLINK-3948,1 52546U 22051P   24116.78324108  .00002041  00000-0  14632-3 0  9995,2 52546  53.2175 314.5659 0001282 118.6185 241.4936 15.08838597108421,6917.885,95.438,540.637,538.863,0.0
52546.0,STARLINK-3948,PAYLOAD,2024-04-26 05:55:34,15.0883999,9.35e-05,53.217,312.4905,70.8539,289.2555,0.00025046,3.701e-05,0.0,0 STARLINK-3948,1 52546U 22051P   24117.24692162  .00003701  00000-0  25046-3 0  9990,2 52546  53.2170 312.4905 0000935  70.8539 289.2555 15.08839990108428,6917.88,95.438,540.392,539.099,0.0
52546.0,STARLINK-3948,PAYLOAD,2024-04-26 17:03:16,15.08837958,9.47e-05,53.2179,310.4066,72.5222,287.5874,3.6205e-05,2.88e-06,0.0,0 STARLINK-3948,1 52546U 22051P   24117.71060393  .00000288  00000-0  36205-4 0  9994,2 52546  53.2179 310.4066 0000947  72.5222 287.5874 15.08837958108498,6917.887,95.438,540.407,539.097,0.0
52546.0,STARLINK-3948,PAYLOAD,2024-04-27 05:46:20,15.08847655,9.87e-05,53.2173,308.0315,122.6175,237.4912,0.00018346,2.634e-05,0.0,0 STARLINK-3948,1 52546U 22051P   24118.24051875  .00002634  00000-0  18346-3 0  9990,2 52546  53.2173 308.0315 0000987 122.6175 237.4912 15.08847655108649,6917.857,95.437,540.405,539.039,0.0
52546.0,STARLINK-3948,PAYLOAD,2024-04-27 21:40:12,15.08850557,0.0001477,53.2172,305.0577,106.206,253.9094,9.261e-05,1.187e-05,0.0,0 STARLINK-3948,1 52546U 22051P   24118.90291786  .00001187  00000-0  92610-4 0  9999,2 52546  53.2172 305.0577 0001477 106.2060 253.9094 15.08850557108673,6917.848,95.437,540.735,538.691,0.0
52546.0,STARLINK-3948,PAYLOAD,2024-04-28 11:58:41,15.08832126,0.0001535,53.2162,302.3831,74.9317,285.1844,-8.8041e-05,-1.689e-05,0.0,0 STARLINK-3948,1 52546U 22051P   24119.49908815 -.00001689  00000-0 -88041-4 0  9994,2 52546  53.2162 302.3831 0001535  74.9317 285.1844 15.08832126108836,6917.904,95.438,540.831,538.708,0.0
52546.0,STARLINK-3948,PAYLOAD,2024-04-28 19:55:36,15.0883298,9.98e-05,53.2168,300.8959,77.5377,282.5727,-0.00011431,-2.106e-05,0.0,0 STARLINK-3948,1 52546U 22051P   24119.83028789 -.00002106  00000-0 -11431-3 0  9998,2 52546  53.2168 300.8959 0000998  77.5377 282.5727 15.08832980108810,6917.902,95.438,540.457,539.076,0.0
52546.0,STARLINK-3948,PAYLOAD,2024-04-29 11:49:28,15.08833946,9.44e-05,53.2171,297.9225,76.8842,283.2255,0.00012915,1.768e-05,0.0,0 STARLINK-3948,1 52546U 22051P   24120.49269203  .00001768  00000-0  12915-3 0  9999,2 52546  53.2171 297.9225 0000944  76.8842 283.2255 15.08833946108914,6917.899,95.438,540.417,539.111,0.0
52546.0,STARLINK-3948,PAYLOAD,2024-04-29 18:11:00,15.08841969,9.44e-05,53.2172,296.7334,79.3727,280.7371,0.00021474,3.132e-05,0.0,0 STARLINK-3948,1 52546U 22051P   24120.75764947  .00003132  00000-0  21474-3 0  9990,2 52546  53.2172 296.7334 0000944  79.3727 280.7371 15.08841969109021,6917.874,95.437,540.392,539.086,0.0
52546.0,STARLINK-3948,PAYLOAD,2024-04-30 14:51:01,15.08843597,0.0001053,53.217,292.8678,72.788,287.3227,0.00030883,4.631e-05,0.0,0 STARLINK-3948,1 52546U 22051P   24121.61877089  .00004631  00000-0  30883-3 0  9997,2 52546  53.2170 292.8678 0001053  72.7880 287.3227 15.08843597109084,6917.869,95.437,540.463,539.006,0.0
52546.0,STARLINK-3948,PAYLOAD,2024-04-30 18:01:47,15.08853012,0.0001109,53.2174,292.2735,75.6463,284.4652,0.00040696,6.197e-05,0.0,0 STARLINK-3948,1 52546U 22051P   24121.75124703  .00006197  00000-0  40696-3 0  9992,2 52546  53.2174 292.2735 0001109  75.6463 284.4652 15.08853012109103,6917.841,95.437,540.473,538.938,0.0
52546.0,STARLINK-3948,PAYLOAD,2024-05-01 11:31:02,15.08849314,0.0001102,53.2175,289.0015,75.7923,284.3191,0.00014258,1.983e-05,0.0,0 STARLINK-3948,1 52546U 22051P   24122.47988475  .00001983  00000-0  14258-3 0  9999,2 52546  53.2175 289.0015 0001102  75.7923 284.3191 15.08849314109280,6917.852,95.437,540.479,538.955,0.0
52546.0,STARLINK-3948,PAYLOAD,2024-05-01 17:52:34,15.08848433,0.0001173,53.2172,287.8086,85.193,274.9196,6.8217e-05,7.98e-06,0.0,0 STARLINK-3948,1 52546U 22051P   24122.74484282  .00000798  00000-0  68217-4 0  9994,2 52546  53.2172 287.8086 0001173  85.1930 274.9196 15.08848433109250,6917.855,95.437,540.531,538.908,0.0
52546.0,STARLINK-3948,PAYLOAD,2024-05-02 03:24:53,15.08843886,0.0001076,53.2175,286.0249,83.8613,276.2502,3.8059e-05,3.18e-06,0.0,0 STARLINK-3948,1 52546U 22051P   24123.14228453  .00000318  00000-0  38059-4 0  9994,2 52546  53.2175 286.0249 0001076  83.8613 276.2502 15.08843886109387,6917.869,95.437,540.478,538.989,0.0
52546.0,STARLINK-3948,PAYLOAD,2024-05-02 11:21:49,15.08834307,0.0001405,53.2185,284.5418,94.6782,265.437,-0.00012068,-2.208e-05,0.0,0 STARLINK-3948,1 52546U 22051P   24123.47349062 -.00002208  00000-0 -12068-3 0  9993,2 52546  53.2185 284.5418 0001405  94.6782 265.4370 15.08834307109439,6917.898,95.438,540.735,538.791,0.0
52546.0,STARLINK-3948,PAYLOAD,2024-05-02 14:32:36,15.08829206,0.0001291,53.2187,283.9485,91.6563,268.4577,-0.00016949,-2.983e-05,0.0,0 STARLINK-3948,1 52546U 22051P   24123.60597359 -.00002983  00000-0 -16949-3 0  9994,2 52546  53.2187 283.9485 0001291  91.6563 268.4577 15.08829206109383,6917.913,95.438,540.671,538.885,0.0
52546.0,STARLINK-3948,PAYLOAD,2024-05-03 03:15:40,15.08847265,0.0001148,53.2188,281.5677,96.5566,263.5557,-2.6053e-05,-7.03e-06,0.0,0 STARLINK-3948,1 52546U 22051P   24124.13588619 -.00000703  00000-0 -26053-4 0  9998,2 52546  53.2188 281.5677 0001148  96.5566 263.5557 15.08847265109535,6917.858,95.437,540.517,538.929,0.0
52546.0,STARLINK-3948,PAYLOAD,2024-05-03 14:23:22,15.08852345,8.21e-05,53.2139,279.4829,79.0476,281.0608,0.00026811,3.983e-05,0.0,0 STARLINK-3948,1 52546U 22051P   24124.59956039  .00003983  00000-0  26811-3 0  9995,2 52546  53.2139 279.4829 0000821  79.0476 281.0608 15.08852345109536,6917.843,95.437,540.276,539.14,0.0
